AEROCUBE 7              
1 40966U 15058C   26068.71738146  .00005894  00000+0  47977-3 0  9995
2 40966  64.7631 196.1788 0120607 101.5653 259.9029 14.94898912351089
ICEYE-X49               
1 62384U 24247H   26068.30955979  .00004029  00000+0  24529-3 0  9990
2 62384  44.9974 170.2236 0002108 247.0457 113.0198 15.11992896 67055
